start=new Date('2021-12-24T00:00:00.000Z').valueOf();
sats=[{"NORAD_CAT_ID":"45693","MEAN_MOTION_DDOT":"0.0000000000000","CENTER_NAME":"EARTH","TLE_LINE1":"1 45693U 20035AN  21357.82397692  .00000802  00000-0  72698-4 0  9997","RCS_SIZE":"LARGE","APOAPSIS":"548.067","BSTAR":"0.00007269800000","OBJECT_NAME":"STARLINK-1417","OBJECT_TYPE":"PAYLOAD","OBJECT_ID":"2020-035AN","GP_ID":"192321902","LAUNCH_DATE":"2020-06-04","MEAN_ELEMENT_THEORY":"SGP4","INCLINATION":"53.0534","PERIAPSIS":"546.368","ELEMENT_SET_NO":"999","REV_AT_EPOCH":"8722","TIME_SYSTEM":"UTC","EPHEMERIS_TYPE":"0","PERIOD":"95.592","COUNTRY_CODE":"US","EPOCH":"2021-12-23T19:46:31.605888","ARG_OF_PERICENTER":"88.8292","FILE":"3249421","MEAN_MOTION":"15.06398651","MEAN_ANOMALY":"271.2837","SEMIMAJOR_AXIS":"6925.353","REF_FRAME":"TEME","RA_OF_ASC_NODE":"115.8828","SITE":"AFETR","TLE_LINE2":"2 45693  53.0534 115.8828 0001227  88.8292 271.2837 15.06398651 87224","MEAN_MOTION_DOT":"0.00000802","ECCENTRICITY":"0.00012270","CLASSIFICATION_TYPE":"U","DECAY_DATE":null},{"EPOCH":"2021-12-23T19:57:09.432288","COUNTRY_CODE":"US","SEMIMAJOR_AXIS":"6925.339","MEAN_ANOMALY":"270.4647","RA_OF_ASC_NODE":"115.8406","REF_FRAME":"TEME","ARG_OF_PERICENTER":"89.6489","FILE":"3249421","MEAN_MOTION":"15.06403113","SITE":"AFETR","MEAN_MOTION_DOT":"0.00002540","ECCENTRICITY":"0.00012840","CLASSIFICATION_TYPE":"U","DECAY_DATE":null,"TLE_LINE2":"2 45694  53.0531 115.8406 0001284  89.6489 270.4647 15.06403113 87224","TLE_LINE1":"1 45694U 20035AP  21357.83135917  .00002540  00000-0  18931-3 0  9999","APOAPSIS":"548.093","RCS_SIZE":"LARGE","NORAD_CAT_ID":"45694","MEAN_MOTION_DDOT":"0.0000000000000","CENTER_NAME":"EARTH","BSTAR":"0.00018931000000","OBJECT_NAME":"STARLINK-1419","INCLINATION":"53.0531","MEAN_ELEMENT_THEORY":"SGP4","PERIAPSIS":"546.315","OBJECT_TYPE":"PAYLOAD","OBJECT_ID":"2020-035AP","GP_ID":"192323148","LAUNCH_DATE":"2020-06-04","REV_AT_EPOCH":"8722","TIME_SYSTEM":"UTC","EPHEMERIS_TYPE":"0","PERIOD":"95.592","ELEMENT_SET_NO":"999"},{"SITE":"AFETR","CLASSIFICATION_TYPE":"U","DECAY_DATE":null,"MEAN_MOTION_DOT":"0.00001193","ECCENTRICITY":"0.00013770","TLE_LINE2":"2 45695  53.0541  96.7575 0001377 100.5164 259.5981 15.06416839 87482","EPOCH":"2021-12-23T15:02:32.609184","COUNTRY_CODE":"US","RA_OF_ASC_NODE":"96.7575","REF_FRAME":"TEME","MEAN_ANOMALY":"259.5981","SEMIMAJOR_AXIS":"6925.297","FILE":"3249421","MEAN_MOTION":"15.06416839","ARG_OF_PERICENTER":"100.5164","PERIAPSIS":"546.208","INCLINATION":"53.0541","MEAN_ELEMENT_THEORY":"SGP4","LAUNCH_DATE":"2020-06-04","OBJECT_TYPE":"PAYLOAD","OBJECT_ID":"2020-035AQ","GP_ID":"192322901","EPHEMERIS_TYPE":"0","PERIOD":"95.591","REV_AT_EPOCH":"8748","TIME_SYSTEM":"UTC","ELEMENT_SET_NO":"999","APOAPSIS":"548.116","RCS_SIZE":"LARGE","TLE_LINE1":"1 45695U 20035AQ  21357.62676631  .00001193  00000-0  98914-4 0  9993","CENTER_NAME":"EARTH","NORAD_CAT_ID":"45695","MEAN_MOTION_DDOT":"0.0000000000000","OBJECT_NAME":"STARLINK-1420","BSTAR":"0.00009891400000"},{"MEAN_MOTION_DDOT":"0.0000000000000","NORAD_CAT_ID":"45696","CENTER_NAME":"EARTH","TLE_LINE1":"1 45696U 20035AR  21357.83504288  .00000506  00000-0  52890-4 0  9995","RCS_SIZE":"LARGE","APOAPSIS":"548.406","BSTAR":"0.00005289000000","OBJECT_NAME":"STARLINK-1422","GP_ID":"192322152","OBJECT_ID":"2020-035AR","OBJECT_TYPE":"PAYLOAD","LAUNCH_DATE":"2020-06-04","INCLINATION":"53.0533","MEAN_ELEMENT_THEORY":"SGP4","PERIAPSIS":"546.037","ELEMENT_SET_NO":"999","TIME_SYSTEM":"UTC","REV_AT_EPOCH":"8722","PERIOD":"95.592","EPHEMERIS_TYPE":"0","COUNTRY_CODE":"US","EPOCH":"2021-12-23T20:02:27.704832","ARG_OF_PERICENTER":"83.1083","MEAN_MOTION":"15.06397483","FILE":"3249421","MEAN_ANOMALY":"277.0101","SEMIMAJOR_AXIS":"6925.356","REF_FRAME":"TEME","RA_OF_ASC_NODE":"115.8259","SITE":"AFETR","TLE_LINE2":"2 45696  53.0533 115.8259 0001710  83.1083 277.0101 15.06397483 87227","ECCENTRICITY":"0.00017100","MEAN_MOTION_DOT":"0.00000506","DECAY_DATE":null,"CLASSIFICATION_TYPE":"U"},{"COUNTRY_CODE":"US","EPOCH":"2021-12-23T17:52:25.384800","ARG_OF_PERICENTER":"106.2398","FILE":"3249421","MEAN_MOTION":"15.06397193","MEAN_ANOMALY":"253.8739","SEMIMAJOR_AXIS":"6925.357","RA_OF_ASC_NODE":"96.2338","REF_FRAME":"TEME","SITE":"AFETR","TLE_LINE2":"2 45697  53.0551  96.2338 0001345 106.2398 253.8739 15.06397193 87506","MEAN_MOTION_DOT":"0.00001146","ECCENTRICITY":"0.00013450","CLASSIFICATION_TYPE":"U","DECAY_DATE":null,"NORAD_CAT_ID":"45697","MEAN_MOTION_DDOT":"0.0000000000000","CENTER_NAME":"EARTH","TLE_LINE1":"1 45697U 20035AS  21357.74473825  .00001146  00000-0  95845-4 0  9996","APOAPSIS":"548.154","RCS_SIZE":"LARGE","BSTAR":"0.00009584500000","OBJECT_NAME":"STARLINK-1351","OBJECT_ID":"2020-035AS","OBJECT_TYPE":"PAYLOAD","GP_ID":"192322403","LAUNCH_DATE":"2020-06-04","INCLINATION":"53.0551","MEAN_ELEMENT_THEORY":"SGP4","PERIAPSIS":"546.291","ELEMENT_SET_NO":"999","REV_AT_EPOCH":"8750","TIME_SYSTEM":"UTC","EPHEMERIS_TYPE":"0","PERIOD":"95.592"},{"LAUNCH_DATE":"2020-06-04","OBJECT_ID":"2020-035AT","OBJECT_TYPE":"PAYLOAD","GP_ID":"192322648","PERIAPSIS":"546.180","INCLINATION":"53.0547","MEAN_ELEMENT_THEORY":"SGP4","ELEMENT_SET_NO":"999","EPHEMERIS_TYPE":"0","PERIOD":"95.592","REV_AT_EPOCH":"8748","TIME_SYSTEM":"UTC","CENTER_NAME":"EARTH","NORAD_CAT_ID":"45698","MEAN_MOTION_DDOT":"0.0000000000000","RCS_SIZE":"LARGE","APOAPSIS":"548.248","TLE_LINE1":"1 45698U 20035AT  21357.60098447  .00000389  00000-0  45009-4 0  9990","OBJECT_NAME":"STARLINK-1370","BSTAR":"0.00004500900000","SITE":"AFETR","TLE_LINE2":"2 45698  53.0547  96.8889 0001493  93.3247 266.7912 15.06399785 87484","CLASSIFICATION_TYPE":"U","DECAY_DATE":null,"MEAN_MOTION_DOT":"0.00000389","ECCENTRICITY":"0.00014930","COUNTRY_CODE":"US","EPOCH":"2021-12-23T14:25:25.058208","FILE":"3249421","MEAN_MOTION":"15.06399785","ARG_OF_PERICENTER":"93.3247","REF_FRAME":"TEME","RA_OF_ASC_NODE":"96.8889","SEMIMAJOR_AXIS":"6925.349","MEAN_ANOMALY":"266.7912"},{"ECCENTRICITY":"0.00012980","MEAN_MOTION_DOT":"0.00001282","DECAY_DATE":null,"CLASSIFICATION_TYPE":"U","TLE_LINE2":"2 45699  53.0550  96.9225 0001298  88.3428 271.7710 15.06390968 87477","SITE":"AFETR","SEMIMAJOR_AXIS":"6925.376","MEAN_ANOMALY":"271.7710","RA_OF_ASC_NODE":"96.9225","REF_FRAME":"TEME","ARG_OF_PERICENTER":"88.3428","MEAN_MOTION":"15.06390968","FILE":"3248538","EPOCH":"2021-12-23T14:09:30.051360","COUNTRY_CODE":"US","TIME_SYSTEM":"UTC","REV_AT_EPOCH":"8747","PERIOD":"95.593","EPHEMERIS_TYPE":"0","ELEMENT_SET_NO":"999","MEAN_ELEMENT_THEORY":"SGP4","INCLINATION":"53.0550","PERIAPSIS":"546.342","GP_ID":"192287064","OBJECT_ID":"2020-035AU","OBJECT_TYPE":"PAYLOAD","LAUNCH_DATE":"2020-06-04","BSTAR":"0.00010496000000","OBJECT_NAME":"STARLINK-1398","TLE_LINE1":"1 45699U 20035AU  21357.58993115  .00001282  00000-0  10496-3 0  9998","RCS_SIZE":"LARGE","APOAPSIS":"548.140","MEAN_MOTION_DDOT":"0.0000000000000","NORAD_CAT_ID":"45699","CENTER_NAME":"EARTH"},{"LAUNCH_DATE":"2020-06-04","GP_ID":"192321652","OBJECT_ID":"2020-035AV","OBJECT_TYPE":"PAYLOAD","PERIAPSIS":"546.203","INCLINATION":"53.0555","MEAN_ELEMENT_THEORY":"SGP4","ELEMENT_SET_NO":"999","PERIOD":"95.592","EPHEMERIS_TYPE":"0","TIME_SYSTEM":"UTC","REV_AT_EPOCH":"8750","CENTER_NAME":"EARTH","MEAN_MOTION_DDOT":"0.0000000000000","NORAD_CAT_ID":"45700","APOAPSIS":"548.240","RCS_SIZE":"LARGE","TLE_LINE1":"1 45700U 20035AV  21357.78528252  .00000931  00000-0  81393-4 0  9994","OBJECT_NAME":"STARLINK-1400","BSTAR":"0.00008139300000","SITE":"AFETR","TLE_LINE2":"2 45700  53.0555  96.0622 0001470 114.1833 245.9309 15.06397410 87507","DECAY_DATE":null,"CLASSIFICATION_TYPE":"U","ECCENTRICITY":"0.00014700","MEAN_MOTION_DOT":"0.00000931","COUNTRY_CODE":"US","EPOCH":"2021-12-23T18:50:48.409728","MEAN_MOTION":"15.06397410","FILE":"3249421","ARG_OF_PERICENTER":"114.1833","REF_FRAME":"TEME","RA_OF_ASC_NODE":"96.0622","SEMIMAJOR_AXIS":"6925.356","MEAN_ANOMALY":"245.9309"},{"SITE":"AFETR","DECAY_DATE":null,"CLASSIFICATION_TYPE":"U","ECCENTRICITY":"0.00012950","MEAN_MOTION_DOT":"0.00005425","TLE_LINE2":"2 45701  53.0525  96.2072 0001295  97.5823 262.5313 15.06412884 87495","EPOCH":"2021-12-23T17:57:42.926400","COUNTRY_CODE":"US","RA_OF_ASC_NODE":"96.2072","REF_FRAME":"TEME","SEMIMAJOR_AXIS":"6925.309","MEAN_ANOMALY":"262.5313","MEAN_MOTION":"15.06412884","FILE":"3249421","ARG_OF_PERICENTER":"97.5823","PERIAPSIS":"546.277","MEAN_ELEMENT_THEORY":"SGP4","INCLINATION":"53.0525","LAUNCH_DATE":"2020-06-04","GP_ID":"192321903","OBJECT_TYPE":"PAYLOAD","OBJECT_ID":"2020-035AW","PERIOD":"95.591","EPHEMERIS_TYPE":"0","TIME_SYSTEM":"UTC","REV_AT_EPOCH":"8749","ELEMENT_SET_NO":"999","RCS_SIZE":"LARGE","APOAPSIS":"548.071","TLE_LINE1":"1 45701U 20035AW  21357.74841350  .00005425  00000-0  38268-3 0  9993","CENTER_NAME":"EARTH","MEAN_MOTION_DDOT":"0.0000000000000","NORAD_CAT_ID":"45701","OBJECT_NAME":"STARLINK-1403","BSTAR":"0.00038268000000"},{"COUNTRY_CODE":"US","EPOCH":"2021-12-23T15:55:39.171648","MEAN_MOTION":"15.06408179","FILE":"3249421","ARG_OF_PERICENTER":"95.3501","RA_OF_ASC_NODE":"96.5954","REF_FRAME":"TEME","MEAN_ANOMALY":"264.7620","SEMIMAJOR_AXIS":"6925.323","SITE":"AFETR","TLE_LINE2":"2 45702  53.0534  96.5954 0001159  95.3501 264.7620 15.06408179 87482","DECAY_DATE":null,"CLASSIFICATION_TYPE":"U","ECCENTRICITY":"0.00011590","MEAN_MOTION_DOT":"0.00010294","CENTER_NAME":"EARTH","MEAN_MOTION_DDOT":"0.0000000000000","NORAD_CAT_ID":"45702","APOAPSIS":"547.991","RCS_SIZE":"LARGE","TLE_LINE1":"1 45702U 20035AX  21357.66364782  .00010294  00000-0  70878-3 0  9997","OBJECT_NAME":"STARLINK-1405","BSTAR":"0.00070878000000","LAUNCH_DATE":"2020-06-04","GP_ID":"192323149","OBJECT_ID":"2020-035AX","OBJECT_TYPE":"PAYLOAD","PERIAPSIS":"546.386","INCLINATION":"53.0534","MEAN_ELEMENT_THEORY":"SGP4","ELEMENT_SET_NO":"999","PERIOD":"95.592","EPHEMERIS_TYPE":"0","TIME_SYSTEM":"UTC","REV_AT_EPOCH":"8748"}];
